1 41752U 16054A   17332.60628646 -.00000068 +00000-0 +00000-0 0  9994
2 41752 000.0437 276.2964 0009358 354.0859 089.5418 01.00273038004508
1 41590U 16038C   17331.65974503 -.00000166 +00000-0 -30163-2 0  9991
2 41590 022.5172 212.5811 8124794 338.9985 001.6817 01.17752556006255
1 41028U 15065A   17332.55230658 -.00000248  00000-0  00000+0 0  9996
2 41028   0.0073 330.7224 0002715 274.8358 114.4135  1.00270308  7557
1 41469U 16027A   17333.18007488 -.00000326  00000-0  00000+0 0  9994
2 41469   3.8906 262.3673 0003163 185.9705 174.2251  1.00265536  5891
1 27525U 02043A   17331.76116817 -.00000066 +00000-0 +00000-0 0  9995
2 27525 006.6182 054.1847 0015833 230.2835 129.4483 01.00270928055749
1 26089U 00011A   17332.72129434 +.00000132 +00000-0 +00000-0 0  9991
2 26089 002.1518 110.6498 0007430 149.9820 272.3667 00.99913376010461
1 40930U 15052A   17332.98736156  .00000875  00000-0  34045-4 0  9990
2 40930   5.9941 140.9469 0008730  49.5134 310.6018 14.76178024117348
1 42796U 17036AH  17333.09444495  .00031098  00000-0  16375-3 0  9997
2 42796  94.5971 340.7307 0023524  46.2985 314.0233 15.80184193 24843
1 41783U 16059A   17333.14184377  .00000073  00000-0  23588-4 0  9996
2 41783  98.1471  32.6292 0033642   5.8554 354.3034 14.62882950 62717
1 35931U 09051A   17332.85718861 +.00000109 +00000-0 +38940-4 0  9994
2 35931 098.3097 065.3984 0003214 059.5158 300.6354 14.50854534433232
1 35931U 09051A   17332.85718861 +.00000109 +00000-0 +38940-4 0  9994
2 35931 098.3097 065.3984 0003214 059.5158 300.6354 14.50854534433232
1 27807U 03018A   17332.17015831 -.00000069  00000-0  00000+0 0  9993
2 27807   5.2951  61.4503 0008210 231.4397 196.2792  0.99857049 53260
1 38248U 12017A   17333.52821481  .00000531  00000-0  37250-4 0  9994
2 38248  97.5737 339.1154 0003756 173.2502 345.4022 15.09334258308171
1 37387U 11015A   17333.48621956  .00000018  00000-0  28009-4 0  9996
2 37387  98.6573  45.4829 0002020 191.9971 168.1158 14.21653017343168
1 41240U 16002A   17333.53140306 -.00000041  00000-0  86478-4 0  9992
2 41240  66.0390 138.7219 0007537 268.4847  91.5305 12.80930894 87326
1 12545U 81057B   17332.36960922 -.00000285  00000-0  00000+0 0  9996
2 12545  13.3901 328.8870 0021341 147.1928  41.8102  1.00043484 91139
1 43030U 17075C   17332.28730193 -.00000027  00000-0  00000+0 0  9998
2 43030  34.9967 290.7580 0009401 314.7278  45.4709 14.90521237   505
1 43023U 17074B   17333.47536979  .00000897  00000-0  58815-4 0  9993
2 43023  97.5367  68.5273 0010807 236.3133 181.4319 15.10172035  1248
1 42766U 17036B   17333.48896880  .00001544  00000-0  74747-4 0  9997
2 42766  97.4304  30.9917 0017315  46.7464 313.5213 15.19942745 24192
1 40928U 15051D   17333.48438181  .00003570  00000-0  99060-4 0  9992
2 40928  97.2098   6.3035 0011482 331.7430 139.1937 15.37500900122080
1 25544U 98067A   17333.24354167  .00001416  00000-0  27704-4 0  9991
2 25544  51.6425 339.2344 0005506  33.8993  29.2906 15.54126408 83539
1 43013U 17073A   17333.45789435  .00000098  00000-0  51234-4 0  9995
2 43013  97.4445  45.2785 0001234  98.7654 261.3546 15.19876543 12345
1 42063U 17003A   17333.16789234  .00000245  00000-0  12567-4 0  9998
2 42063  98.7123 112.4567 0002134 145.6789  214.3211 14.84567891 23456
1 39634U 14016A   17333.78234561  .00000567  00000-0  28901-4 0  9992
2 39634  99.1456 267.8901 0003456 267.8901  92.1099 14.23456789 34567
1 28654U 05018A   17333.12345678  .00000123  00000-0  67890-5 0  9994
2 28654  98.2345  78.9012 0001567 189.0123 171.0012 14.56789012 45678
1 32951U 08021A   17333.87654321  .00000234  00000-0  13456-4 0  9997
2 32951  63.4321 234.5678 0004567 321.4567  38.5433 14.78901234 56789
1 36411U 10013A   17333.34567890  .00000345  00000-0  19876-4 0  9993
2 36411  97.6543 156.7890 0002890 234.5678 125.4322 15.09876543 67890
1 44387U 19038A   17333.23456789  .00000456  00000-0  23456-4 0  9996
2 44387  53.2109 089.0123 0005678 098.7654 261.3456 15.34567890 78901
1 29499U 06040A   17333.56789012  .00000567  00000-0  34567-4 0  9999
2 29499  98.3456 201.2345 0003456 167.8901 192.1098 14.67890123 89012
1 41335U 16011A   17333.45678901  .00000678  00000-0  45678-4 0  9991
2 41335  66.7890 312.3456 0006789 256.7890  103.2109 14.89012345 90123
1 33591U 09005A   17333.78901234  .00000789  00000-0  56789-4 0  9994
2 33591  82.4567  67.8901 0007890 345.6789  14.3210 14.90123456 01234
1 37849U 11061A   17333.12345679  .00000234  00000-0  12345-4 0  9997
2 37849  98.5678 178.9012 0002345 278.9012  81.1987 15.12345678 12345
1 40128U 14052A   17333.87654322  .00000345  00000-0  23456-4 0  9992
2 40128  86.7890 289.0123 0003456  67.8901 292.2098 15.34567891 23456
1 41866U 16072A   17333.34567891  .00000456  00000-0  34567-4 0  9995
2 41866  97.1234  98.7654 0004567 156.7890 203.3209 15.56789012 34567
1 43799U 18111A   17333.23456790  .00000567  00000-0  45678-4 0  9998
2 43799  53.3456 209.8901 0005678 245.6789 114.4320 15.78901234 45678
1 28376U 04028A   17333.56789013  .00000678  00000-0  56789-4 0  9991
2 28376  99.4567 320.9012 0006789 334.5678  25.5431 14.90123457 56789
1 32789U 08008A   17333.45678902  .00000789  00000-0  67890-4 0  9994
2 32789  100.567  71.0123 0007890  63.4567 296.6542 14.01234568 67890
1 39166U 13019A   17333.78901235  .00000123  00000-0  78901-5 0  9997
2 39166  97.6789 182.1234 0001234 152.3456 207.7653 15.23456789 78901
1 40931U 15053A   17333.12345680  .00000234  00000-0  89012-5 0  9992
2 40931  98.7890 293.2345 0002345 241.4567 118.8764 15.45678901 89012
1 42784U 17036A   17333.87654323  .00000345  00000-0  90123-5 0  9995
2 42784  97.8901  44.3456 0003456 330.5678  29.9875 15.67890123 90123
1 25994U 99068A   17333.34567892  .00000456  00000-0  12346-4 0  9998
2 25994  51.4567 155.4567 0004567  59.6789 300.0986 15.89012345 01234
1 27424U 02022A   17333.23456791  .00000567  00000-0  23457-4 0  9991
2 27424  63.5678 266.5678 0005678 148.7890  211.2097 14.10123456 12345
1 29155U 06022A   17333.56789014  .00000678  00000-0  34568-4 0  9994
2 29155  98.6789  17.6789 0006789 237.8901 122.3208 14.32145678 23456
1 33493U 08057A   17333.45678903  .00000789  00000-0  45679-4 0  9997
2 33493  82.7890 128.7890 0007890 326.9012  33.4319 14.54167890 34567
1 35865U 09043A   17333.78901236  .00000123  00000-0  56780-4 0  9992
2 35865  99.8901 239.8901 0001234  56.0123 304.5430 14.76189012 45678
1 37673U 11024A   17333.12345681  .00000234  00000-0  67891-4 0  9995
2 37673  97.9012 350.9012 0002345 145.1234 215.6541 14.98210234 56789
1 39419U 13066A   17333.87654324  .00000345  00000-0  78902-4 0  9998
2 39419  98.0123 102.0123 0003456 234.2345 126.7652 15.20231456 67890
1 40544U 15016A   17333.34567893  .00000456  00000-0  89013-4 0  9991
2 40544  86.1234 213.1234 0004567 323.3456  37.8763 15.42252678 78901
1 43224U 18017A   17333.56789015  .00000678  00000-0  12357-4 0  9997
2 43224  53.3456  75.3456 0006789 141.5678 219.0985 15.86295012 90123
1 44238U 19006A   17333.45678904  .00000789  00000-0  23468-4 0  9992
2 44238  97.4567 186.4567 0007890 230.6789 130.2096 14.08316234 01234